ONEWEB-0056             
1 45159U 20008AE  24307.59926289 -.00000525  00000+0 -15396-2 0  9999
2 45159  87.8910 154.0552 0001466  89.1882 270.9413 13.10372108230708
ONEWEB-0057             
1 45160U 20008AF  24307.52953949 -.00000498  00000+0 -14618-2 0  9992
2 45160  87.8916 154.0741 0001538  84.7368 275.3935 13.10371741230863
ONEWEB-0058             
1 45161U 20008AG  24307.59276811 -.00000139  00000+0 -43376-3 0  9992
2 45161  87.8905 154.0889 0001575  80.6822 279.4483 13.10368353230943
ONEWEB-0059             
1 45162U 20008AH  24307.58931012  .00000071  00000+0  16816-3 0  9995
2 45162  87.8911 154.0758 0001549  77.2572 282.8728 13.10370289230841
ONEWEB-0062             
1 45163U 20008AJ  24307.53950471 -.00000393  00000+0 -11625-2 0  9992
2 45163  87.8916 154.0690 0001433  68.5454 291.5826 13.10374971230709
ONEWEB-0065             
1 45164U 20008AK  24307.59428668 -.00000202  00000+0 -61364-3 0  9992
2 45164  87.8913 154.0706 0001449  89.2663 270.8630 13.10370793230402
ONEWEB-0066             
1 45424U 20020A   24307.54153725  .00000361  00000+0  98201-3 0  9993
2 45424  87.8889 138.9343 0001929  87.6085 272.5263 13.11413451225139
ONEWEB-0067             
1 45425U 20020B   24307.50267950 -.00000219  00000+0 -65450-3 0  9990
2 45425  87.8879 138.8861 0001721  91.7868 268.3457 13.11417677225185
